CSS (TIANHE)            
1 48274U 21035A   24260.01811034  .00035731  00000+0  36786-3 0  9999
2 48274  41.4675 249.3272 0002291 160.2121 199.8808 15.64118987193309
